{
  "norad_id": 58414,
  "name": "STARLINK-30922",
  "history": [
    {
      "epoch": "2026-05-03T06:52:46.833024Z",
      "apogee_km": 483.9613032873931,
      "perigee_km": 482.12799555066795,
      "latitude_deg": 2.7215915598863772e-05,
      "longitude_deg": 140.00767769291537,
      "height_km": 482.84785174143394,
      "semi_major_axis_km": 6861.18164941903,
      "eccentricity": 0.0001336,
      "inclination_deg": 43.0021,
      "raan_deg": 104.3953,
      "arg_perigee_deg": 268.3542,
      "mean_anomaly_deg": 91.7157,
      "mean_motion_rev_day": 15.27581485
    },
    {
      "epoch": "2026-05-04T00:08:30.202368Z",
      "apogee_km": 483.90833062120237,
      "perigee_km": 482.16641567134866,
      "latitude_deg": -3.1365236655137864e-05,
      "longitude_deg": -123.69601962310792,
      "height_km": 482.997759466451,
      "semi_major_axis_km": 6861.174373146276,
      "eccentricity": 0.00012694,
      "inclination_deg": 43.0008,
      "raan_deg": 100.3313,
      "arg_perigee_deg": 257.8204,
      "mean_anomaly_deg": 102.2505,
      "mean_motion_rev_day": 15.27583915
    },
    {
      "epoch": "2026-05-04T23:40:51.011328Z",
      "apogee_km": 483.9593930934507,
      "perigee_km": 482.1524293283537,
      "latitude_deg": 5.799355464969209e-05,
      "longitude_deg": -123.28824888179155,
      "height_km": 482.955791881746,
      "semi_major_axis_km": 6861.192911210902,
      "eccentricity": 0.00013168,
      "inclination_deg": 43.0014,
      "raan_deg": 94.7924,
      "arg_perigee_deg": 262.1674,
      "mean_anomaly_deg": 97.9029,
      "mean_motion_rev_day": 15.27577724
    },
    {
      "epoch": "2026-05-06T21:11:21.453216Z",
      "apogee_km": 484.0115440607706,
      "perigee_km": 482.0067171614055,
      "latitude_deg": 3.209064049597265e-05,
      "longitude_deg": -98.4910908585538,
      "height_km": 482.84408169621855,
      "semi_major_axis_km": 6861.146130611088,
      "eccentricity": 0.0001461,
      "inclination_deg": 43.0038,
      "raan_deg": 84.0854,
      "arg_perigee_deg": 266.695,
      "mean_anomaly_deg": 93.3735,
      "mean_motion_rev_day": 15.27593347
    },
    {
      "epoch": "2026-05-07T05:02:10.798080Z",
      "apogee_km": 483.9832481446565,
      "perigee_km": 482.16639925374056,
      "latitude_deg": 4.456187149548152e-06,
      "longitude_deg": 141.63450841133914,
      "height_km": 482.7459659154917,
      "semi_major_axis_km": 6861.211823699198,
      "eccentricity": 0.0001324,
      "inclination_deg": 43.0031,
      "raan_deg": 82.2389,
      "arg_perigee_deg": 276.6913,
      "mean_anomaly_deg": 83.3788,
      "mean_motion_rev_day": 15.27571408
    },
    {
      "epoch": "2026-05-08T06:08:40.388928Z",
      "apogee_km": 483.8267299689578,
      "perigee_km": 482.29256639842424,
      "latitude_deg": 3.218138607103368e-05,
      "longitude_deg": 118.07118138098588,
      "height_km": 482.8293243744076,
      "semi_major_axis_km": 6861.196648183691,
      "eccentricity": 0.0001118,
      "inclination_deg": 43.0029,
      "raan_deg": 76.33,
      "arg_perigee_deg": 270.5309,
      "mean_anomaly_deg": 89.5415,
      "mean_motion_rev_day": 15.27576476
    },
    {
      "epoch": "2026-05-09T05:41:01.156416Z",
      "apogee_km": 483.8636249953415,
      "perigee_km": 482.2416397662473,
      "latitude_deg": -1.4999781863846026e-05,
      "longitude_deg": 118.47888073562628,
      "height_km": 482.8419381788977,
      "semi_major_axis_km": 6861.189632380794,
      "eccentricity": 0.0001182,
      "inclination_deg": 43.0033,
      "raan_deg": 70.791,
      "arg_perigee_deg": 269.1225,
      "mean_anomaly_deg": 90.9491,
      "mean_motion_rev_day": 15.27578819
    }
  ]
}